[{"OBJECT_NAME":"STARLINK-3501","OBJECT_ID":"2022-016AL","EPOCH":"2025-12-24T18:58:38.738496","MEAN_MOTION":15.0885283,"ECCENTRICITY":0.00013515,"INCLINATION":53.2171,"RA_OF_ASC_NODE":285.3568,"ARG_OF_PERICENTER":85.8845,"MEAN_ANOMALY":274.2302,"EPHEMERIS_TYPE":0,"CLASSIFICATION_TYPE":"U","NORAD_CAT_ID":51748,"ELEMENT_SET_NO":999,"REV_AT_EPOCH":21239,"BSTAR":-5.2918754e-5,"MEAN_MOTION_DOT":-1.13e-5,"MEAN_MOTION_DDOT":0},{"OBJECT_NAME":"STARLINK-3451","OBJECT_ID":"2022-016AM","EPOCH":"2025-12-24T19:39:44.907264","MEAN_MOTION":15.08839185,"ECCENTRICITY":0.00013649,"INCLINATION":53.2173,"RA_OF_ASC_NODE":295.4134,"ARG_OF_PERICENTER":83.2657,"MEAN_ANOMALY":276.8491,"EPHEMERIS_TYPE":0,"CLASSIFICATION_TYPE":"U","NORAD_CAT_ID":51749,"ELEMENT_SET_NO":999,"REV_AT_EPOCH":21225,"BSTAR":5.5096014e-5,"MEAN_MOTION_DOT":5.89e-6,"MEAN_MOTION_DDOT":0},{"OBJECT_NAME":"STARLINK-3505","OBJECT_ID":"2022-016AN","EPOCH":"2025-12-24T04:30:57.162240","MEAN_MOTION":15.08841828,"ECCENTRICITY":0.00014052,"INCLINATION":53.2184,"RA_OF_ASC_NODE":288.0677,"ARG_OF_PERICENTER":83.8031,"MEAN_ANOMALY":276.3122,"EPHEMERIS_TYPE":0,"CLASSIFICATION_TYPE":"U","NORAD_CAT_ID":51750,"ELEMENT_SET_NO":999,"REV_AT_EPOCH":21230,"BSTAR":3.0582604e-5,"MEAN_MOTION_DOT":1.99e-6,"MEAN_MOTION_DDOT":0},{"OBJECT_NAME":"STARLINK-3506","OBJECT_ID":"2022-016AP","EPOCH":"2025-12-24T19:05:20.003424","MEAN_MOTION":15.08818692,"ECCENTRICITY":0.00012538,"INCLINATION":53.2174,"RA_OF_ASC_NODE":285.3465,"ARG_OF_PERICENTER":90.5182,"MEAN_ANOMALY":269.5954,"EPHEMERIS_TYPE":0,"CLASSIFICATION_TYPE":"U","NORAD_CAT_ID":51751,"ELEMENT_SET_NO":999,"REV_AT_EPOCH":21239,"BSTAR":0.00033335325,"MEAN_MOTION_DOT":5.018e-5,"MEAN_MOTION_DDOT":0},{"OBJECT_NAME":"STARLINK-3511","OBJECT_ID":"2022-016AQ","EPOCH":"2025-12-24T12:11:58.366752","MEAN_MOTION":15.08844315,"ECCENTRICITY":0.00015827,"INCLINATION":53.2182,"RA_OF_ASC_NODE":286.5557,"ARG_OF_PERICENTER":94.024,"MEAN_ANOMALY":266.0933,"EPHEMERIS_TYPE":0,"CLASSIFICATION_TYPE":"U","NORAD_CAT_ID":51752,"ELEMENT_SET_NO":999,"REV_AT_EPOCH":21235,"BSTAR":-8.3523386e-5,"MEAN_MOTION_DOT":-1.617e-5,"MEAN_MOTION_DDOT":0},{"OBJECT_NAME":"STARLINK-3507","OBJECT_ID":"2022-016AR","EPOCH":"2025-12-24T22:05:30.164928","MEAN_MOTION":15.08839485,"ECCENTRICITY":0.0001552,"INCLINATION":53.2163,"RA_OF_ASC_NODE":284.7838,"ARG_OF_PERICENTER":99.6497,"MEAN_ANOMALY":260.467,"EPHEMERIS_TYPE":0,"CLASSIFICATION_TYPE":"U","NORAD_CAT_ID":51753,"ELEMENT_SET_NO":999,"REV_AT_EPOCH":21241,"BSTAR":6.2637065e-5,"MEAN_MOTION_DOT":7.09e-6,"MEAN_MOTION_DDOT":0},{"OBJECT_NAME":"STARLINK-3457","OBJECT_ID":"2022-016AS","EPOCH":"2025-12-24T19:35:41.599680","MEAN_MOTION":15.08838977,"ECCENTRICITY":0.00014541,"INCLINATION":53.2189,"RA_OF_ASC_NODE":284.9979,"ARG_OF_PERICENTER":85.9134,"MEAN_ANOMALY":274.2024,"EPHEMERIS_TYPE":0,"CLASSIFICATION_TYPE":"U","NORAD_CAT_ID":51754,"ELEMENT_SET_NO":999,"REV_AT_EPOCH":21240,"BSTAR":6.9477381e-5,"MEAN_MOTION_DOT":8.18e-6,"MEAN_MOTION_DDOT":0},{"OBJECT_NAME":"STARLINK-3460","OBJECT_ID":"2022-016AT","EPOCH":"2025-12-24T12:15:54.345024","MEAN_MOTION":15.08839678,"ECCENTRICITY":0.00015157,"INCLINATION":53.2181,"RA_OF_ASC_NODE":286.6096,"ARG_OF_PERICENTER":84.7595,"MEAN_ANOMALY":275.357,"EPHEMERIS_TYPE":0,"CLASSIFICATION_TYPE":"U","NORAD_CAT_ID":51755,"ELEMENT_SET_NO":999,"REV_AT_EPOCH":21235,"BSTAR":3.9791813e-5,"MEAN_MOTION_DOT":3.45e-6,"MEAN_MOTION_DDOT":0},{"OBJECT_NAME":"STARLINK-3513","OBJECT_ID":"2022-016AU","EPOCH":"2025-12-24T22:41:12.434784","MEAN_MOTION":15.08840356,"ECCENTRICITY":0.00013514,"INCLINATION":53.2194,"RA_OF_ASC_NODE":284.664,"ARG_OF_PERICENTER":96.3723,"MEAN_ANOMALY":263.7423,"EPHEMERIS_TYPE":0,"CLASSIFICATION_TYPE":"U","NORAD_CAT_ID":51756,"ELEMENT_SET_NO":999,"REV_AT_EPOCH":21242,"BSTAR":6.5459322e-5,"MEAN_MOTION_DOT":7.54e-6,"MEAN_MOTION_DDOT":0},{"OBJECT_NAME":"STARLINK-3459","OBJECT_ID":"2022-016AV","EPOCH":"2025-12-24T22:37:18.398784","MEAN_MOTION":15.08838205,"ECCENTRICITY":0.00015174,"INCLINATION":53.219,"RA_OF_ASC_NODE":284.6859,"ARG_OF_PERICENTER":96.5915,"MEAN_ANOMALY":263.525,"EPHEMERIS_TYPE":0,"CLASSIFICATION_TYPE":"U","NORAD_CAT_ID":51757,"ELEMENT_SET_NO":999,"REV_AT_EPOCH":21242,"BSTAR":0.00010741104,"MEAN_MOTION_DOT":1.422e-5,"MEAN_MOTION_DDOT":0},{"OBJECT_NAME":"STARLINK-3458","OBJECT_ID":"2022-016AW","EPOCH":"2025-12-24T03:20:40.751520","MEAN_MOTION":15.08843696,"ECCENTRICITY":0.0001515,"INCLINATION":53.2174,"RA_OF_ASC_NODE":288.2308,"ARG_OF_PERICENTER":89.0573,"MEAN_ANOMALY":271.0592,"EPHEMERIS_TYPE":0,"CLASSIFICATION_TYPE":"U","NORAD_CAT_ID":51758,"ELEMENT_SET_NO":999,"REV_AT_EPOCH":21344,"BSTAR":7.068736e-6,"MEAN_MOTION_DOT":-1.75e-6,"MEAN_MOTION_DDOT":0},{"OBJECT_NAME":"STARLINK-3456","OBJECT_ID":"2022-016AX","EPOCH":"2025-12-24T22:30:36.404640","MEAN_MOTION":15.088361,"ECCENTRICITY":0.00015034,"INCLINATION":53.2201,"RA_OF_ASC_NODE":284.6938,"ARG_OF_PERICENTER":89.4692,"MEAN_ANOMALY":270.6473,"EPHEMERIS_TYPE":0,"CLASSIFICATION_TYPE":"U","NORAD_CAT_ID":51759,"ELEMENT_SET_NO":999,"REV_AT_EPOCH":21242,"BSTAR":-6.0423971e-5,"MEAN_MOTION_DOT":-1.249e-5,"MEAN_MOTION_DDOT":0},{"OBJECT_NAME":"STARLINK-3622","OBJECT_ID":"2022-017A","EPOCH":"2025-12-24T21:38:56.802912","MEAN_MOTION":15.08834473,"ECCENTRICITY":0.00015076,"INCLINATION":53.2187,"RA_OF_ASC_NODE":314.8553,"ARG_OF_PERICENTER":96.8345,"MEAN_ANOMALY":263.2819,"EPHEMERIS_TYPE":0,"CLASSIFICATION_TYPE":"U","NORAD_CAT_ID":51768,"ELEMENT_SET_NO":999,"REV_AT_EPOCH":21275,"BSTAR":9.3287808e-5,"MEAN_MOTION_DOT":1.197e-5,"MEAN_MOTION_DDOT":0},{"OBJECT_NAME":"STARLINK-3621","OBJECT_ID":"2022-017B","EPOCH":"2025-12-24T03:59:06.529056","MEAN_MOTION":15.08850376,"ECCENTRICITY":0.00015085,"INCLINATION":53.2188,"RA_OF_ASC_NODE":318.1591,"ARG_OF_PERICENTER":109.5994,"MEAN_ANOMALY":250.5161,"EPHEMERIS_TYPE":0,"CLASSIFICATION_TYPE":"U","NORAD_CAT_ID":51769,"ELEMENT_SET_NO":999,"REV_AT_EPOCH":21120,"BSTAR":-8.7223611e-5,"MEAN_MOTION_DOT":-1.676e-5,"MEAN_MOTION_DDOT":0},{"OBJECT_NAME":"STARLINK-3612","OBJECT_ID":"2022-017C","EPOCH":"2025-12-24T04:04:24.784320","MEAN_MOTION":15.0883337,"ECCENTRICITY":0.00013574,"INCLINATION":53.2189,"RA_OF_ASC_NODE":318.1418,"ARG_OF_PERICENTER":84.7016,"MEAN_ANOMALY":275.4131,"EPHEMERIS_TYPE":0,"CLASSIFICATION_TYPE":"U","NORAD_CAT_ID":51770,"ELEMENT_SET_NO":999,"REV_AT_EPOCH":21121,"BSTAR":4.2801532e-5,"MEAN_MOTION_DOT":3.93e-6,"MEAN_MOTION_DDOT":0},{"OBJECT_NAME":"STARLINK-3614","OBJECT_ID":"2022-017D","EPOCH":"2025-12-24T21:23:01.100544","MEAN_MOTION":15.08851847,"ECCENTRICITY":0.00015197,"INCLINATION":53.2184,"RA_OF_ASC_NODE":314.8964,"ARG_OF_PERICENTER":91.094,"MEAN_ANOMALY":269.0226,"EPHEMERIS_TYPE":0,"CLASSIFICATION_TYPE":"U","NORAD_CAT_ID":51771,"ELEMENT_SET_NO":999,"REV_AT_EPOCH":21131,"BSTAR":9.3632237e-5,"MEAN_MOTION_DOT":1.203e-5,"MEAN_MOTION_DDOT":0},{"OBJECT_NAME":"STARLINK-3623","OBJECT_ID":"2022-017E","EPOCH":"2025-12-24T21:12:27.183744","MEAN_MOTION":15.08845026,"ECCENTRICITY":0.00014667,"INCLINATION":53.2176,"RA_OF_ASC_NODE":314.9384,"ARG_OF_PERICENTER":86.0068,"MEAN_ANOMALY":274.1092,"EPHEMERIS_TYPE":0,"CLASSIFICATION_TYPE":"U","NORAD_CAT_ID":51772,"ELEMENT_SET_NO":999,"REV_AT_EPOCH":21130,"BSTAR":-0.00015935281,"MEAN_MOTION_DOT":-2.824e-5,"MEAN_MOTION_DDOT":0},{"OBJECT_NAME":"STARLINK-3624","OBJECT_ID":"2022-017F","EPOCH":"2025-12-24T03:49:53.073120","MEAN_MOTION":15.08850025,"ECCENTRICITY":0.00013965,"INCLINATION":53.2194,"RA_OF_ASC_NODE":318.1597,"ARG_OF_PERICENTER":83.9995,"MEAN_ANOMALY":276.1157,"EPHEMERIS_TYPE":0,"CLASSIFICATION_TYPE":"U","NORAD_CAT_ID":51773,"ELEMENT_SET_NO":999,"REV_AT_EPOCH":21120,"BSTAR":2.0712779e-5,"MEAN_MOTION_DOT":4.2e-7,"MEAN_MOTION_DDOT":0},{"OBJECT_NAME":"STARLINK-3629","OBJECT_ID":"2022-017G","EPOCH":"2025-12-24T21:01:50.943648","MEAN_MOTION":15.08845885,"ECCENTRICITY":0.00015782,"INCLINATION":53.2179,"RA_OF_ASC_NODE":314.9714,"ARG_OF_PERICENTER":91.7109,"MEAN_ANOMALY":268.4064,"EPHEMERIS_TYPE":0,"CLASSIFICATION_TYPE":"U","NORAD_CAT_ID":51774,"ELEMENT_SET_NO":999,"REV_AT_EPOCH":21127,"BSTAR":0.00014935809,"MEAN_MOTION_DOT":2.09e-5,"MEAN_MOTION_DDOT":0},{"OBJECT_NAME":"STARLINK-3620","OBJECT_ID":"2022-017H","EPOCH":"2025-12-24T03:48:30.423744","MEAN_MOTION":15.08847919,"ECCENTRICITY":0.00012917,"INCLINATION":53.2186,"RA_OF_ASC_NODE":318.1935,"ARG_OF_PERICENTER":91.1282,"MEAN_ANOMALY":268.9859,"EPHEMERIS_TYPE":0,"CLASSIFICATION_TYPE":"U","NORAD_CAT_ID":51775,"ELEMENT_SET_NO":999,"REV_AT_EPOCH":21120,"BSTAR":-2.7306263e-5,"MEAN_MOTION_DOT":-7.23e-6,"MEAN_MOTION_DDOT":0},{"OBJECT_NAME":"STARLINK-3608","OBJECT_ID":"2022-017J","EPOCH":"2025-12-24T20:56:33.453888","MEAN_MOTION":15.08839688,"ECCENTRICITY":0.00017357,"INCLINATION":53.2208,"RA_OF_ASC_NODE":314.9905,"ARG_OF_PERICENTER":81.7382,"MEAN_ANOMALY":278.3807,"EPHEMERIS_TYPE":0,"CLASSIFICATION_TYPE":"U","NORAD_CAT_ID":51776,"ELEMENT_SET_NO":999,"REV_AT_EPOCH":21127,"BSTAR":8.4336289e-5,"MEAN_MOTION_DOT":1.054e-5,"MEAN_MOTION_DDOT":0},{"OBJECT_NAME":"STARLINK-3625","OBJECT_ID":"2022-017K","EPOCH":"2025-12-24T14:41:40.411392","MEAN_MOTION":15.08848249,"ECCENTRICITY":0.00013064,"INCLINATION":53.2207,"RA_OF_ASC_NODE":316.1234,"ARG_OF_PERICENTER":100.6365,"MEAN_ANOMALY":259.4775,"EPHEMERIS_TYPE":0,"CLASSIFICATION_TYPE":"U","NORAD_CAT_ID":51777,"ELEMENT_SET_NO":999,"REV_AT_EPOCH":21126,"BSTAR":0.0001194234,"MEAN_MOTION_DOT":1.614e-5,"MEAN_MOTION_DDOT":0},{"OBJECT_NAME":"STARLINK-3615","OBJECT_ID":"2022-017L","EPOCH":"2025-12-24T21:08:27.628512","MEAN_MOTION":15.08833682,"ECCENTRICITY":0.00014503,"INCLINATION":53.2194,"RA_OF_ASC_NODE":304.8233,"ARG_OF_PERICENTER":95.5692,"MEAN_ANOMALY":264.5465,"EPHEMERIS_TYPE":0,"CLASSIFICATION_TYPE":"U","NORAD_CAT_ID":51778,"ELEMENT_SET_NO":999,"REV_AT_EPOCH":21126,"BSTAR":5.6017215e-5,"MEAN_MOTION_DOT":6.04e-6,"MEAN_MOTION_DDOT":0}]
